address,city,state,zipcode
2107 Mauve Dr,Mission,TX,78572
608 S Castillos Y Diamantes St,Mission,TX,78572
1903 Selena St,Mission,TX,78572
1008 Comanche St,Mission,TX,78572
2316 Antigua Dr,Mission,TX,78572
2902 Santa Sofia Ct,Mission,TX,78572
4005 Grand Canal Dr,Mission,TX,78572
2503 San Esteban St,Mission,TX,78572
513 Castillos Y Diamantes St,Mission,TX,78572
611 S Castillos Y Diamantes St,Mission,TX,78572
3509 Oriole Dr,Mission,TX,78572
3710 Mallard Drive Mission Tx,Mission,TX,78572
510 Castillos Y Diamantes St,Mission,TX,78572
500 S Paseo Del Rey St,Mission,TX,78572
3505 Oriole Dr,Mission,TX,78572
600 S Castillos Y Diamantes Mission Tx,Mission,TX,78572
3507 Oriole Dr,Mission,TX,78572
810 Bluebird,Pharr,TX,78577
8604 S Estrella St,Pharr,TX,78577
805 W Arapaho Ave,Pharr,TX,78577
512 Hunee Dr,San Juan,TX,78589
2416 Baylor Ave,Mcallen,TX,78504
5024 Escondido Pass,Mcallen,TX,78504
4604 Ensenada Ave,Mcallen,TX,78504
5708 Pelican Ave,Mcallen,TX,78504
5216 Escondido Pass,Mcallen,TX,78504
5125 Maple Ave,Mcallen,TX,78504
1020 E Upas Ave,Mcallen,TX,78504
5324 Escondido Pass,Mcallen,TX,78504
5305 River Rd,Mcallen,TX,78504
5904 Pelican Ave,Mcallen,TX,78504
5349 Escondido Pass,Mcallen,TX,78504
5908 Pelican Ave,Mcallen,TX,78504
8010 N 23rd Ln,Mcallen,TX,78504
813 W Cheyenne Ave,Pharr,TX,78577
2304 S Dominique Dr,Pharr,TX,78577
907 W Cheyenne Ave,Pharr,TX,78577
1661 W Canal Ln,Pharr,TX,78577
8627 Quietud St,Edinburg,TX,78542
2402 Penrose Ave,Edinburg,TX,78539
3525 Rancho Del Rey,Edinburg,TX,78542
2313 Vancouver Ave,Edinburg,TX,78539
1407 Strawberry Hill St,Edinburg,TX,78541
Lot 26,Edinburg,TX,0
2608 Wolverine St,Edinburg,TX,78542
Lot 20,Edinburg,TX,0
1624 Saint Claire Ave,Edinburg,TX,78539
2912 Bobcat Ave,Edinburg,TX,78542
3623 Ebro Dr,Edinburg,TX,78539
1706 Saint Claire Ave,Edinburg,TX,78539
1406 Chapel Hill Dr,Edinburg,TX,78541
1371 Shania Twain Dr,Edinburg,TX,78541
2706 Nessuh Ave,Edinburg,TX,78541
5208 Lost Creek Ln,Edinburg,TX,78541