address,city,state,zipcode
1200 Matamoros St,Mission,TX,78572
3303 Santa Erica St,Mission,TX,78572
1406 Colosios,Mission,TX,78572
1001 Burney St,Mission,TX,78572
1206 Flamingo Ave,Mission,TX,78572
1807 Tierra Dorada Blvd,Mission,TX,78572
2013 Peace Ave,Mission,TX,78572
1201 Lucksinger Rd,Mission,TX,78572
2213 Hackberry,Mission,TX,78572
2402 San Alejandro,Mission,TX,78572
2503 Brentwood Dr,Mission,TX,78572
1710 Jonathon Dr,Mission,TX,78572
4109 Santa Maria St,Mission,TX,78572
403 Venus St,Mission,TX,78572
2431 Christina Ave,Mission,TX,78572
7464 Floyd Dr,Mission,TX,78572
3900 El Jardin,Mission,TX,78572
909 Red River St,Mission,TX,78572
3706 Bouganvilla St,Mission,TX,78572
2808 Santa Esperanza,Mission,TX,78572
1204 Elm St,Mission,TX,78572
3005 Santa Monica,Mission,TX,78572
417 Rio Grande Dr,Mission,TX,78572
817 Rankin St,Mission,TX,78572
1715 Palazzo,Mission,TX,78572
3400 Santa Susana St,Mission,TX,78572
1818 Crown Pointe Blvd,Mission,TX,78572
2611 Redstone Dr,Mission,TX,78572
3000 San Patricio St,Mission,TX,78572
1608 Sebastian St,Mission,TX,78572
1005 Berry St,Mission,TX,78572
2600 Sonora Ave,Mission,TX,78572
1205 Travis St,Mission,TX,78572
2107 Mauve Dr,Mission,TX,0
1807 Sebastian St,Mission,TX,78572
1811 Fairway Cir,Mission,TX,78572
1502 Terrace Dr,Mission,TX,78572
2605 Tack Dr # 122,Mission,TX,78572
302 N Slabaugh Ave,Mission,TX,78572
1703 Palazzo,Mission,TX,78572
2101 Scout Ln,Mission,TX,78572
1406 Terrace Dr,Mission,TX,78572
3401 Grand Canal Dr,Mission,TX,78572
608 S Castillos Y Diamantes St,Mission,TX,0
2101 Village Dr,Mission,TX,78572
510 S Sol Dorado St,Mission,TX,78572
1102 Rio Balsas,Mission,TX,78572
2104 Loker St,Mission,TX,78572
2703 Santa Olivia St,Mission,TX,78572
4110 Santa Veronica St,Mission,TX,78572
1804 Alex Dr,Mission,TX,78572
3206 Santa Laura,Mission,TX,78572
109 San Jacinto St,Mission,TX,78572
1017 Rio Grande Dr,Mission,TX,78572
2100 Granite Ave,Mission,TX,78572
2217 Red River Dr,Mission,TX,78572
910 Country Club Dr,Mission,TX,78572
2905 San Rodrigo,Mission,TX,78572
1015 Burney St,Mission,TX,78572
1413 Dora Jeanne Dr,Mission,TX,78572
1701 E 21st St,Mission,TX,78572
2800 Cassandra St,Mission,TX,78572
2221 Red River Dr,Mission,TX,78572
2300 Solera,Mission,TX,78572
1606 Toni Ln,Mission,TX,78572
210 S Stewart Rd,Mission,TX,78572
2118 Turtle Ln,Mission,TX,78572
201 S Grovewood Ave,Mission,TX,78572
1907 Lake Point Dr,Mission,TX,78572
1608 Audrey Dr,Mission,TX,78572
4104 Santa Olivia St,Mission,TX,78572
214 Driftwood Ave,Mission,TX,78572
1110 Fairway Dr,Mission,TX,78572
900 Paradise Cir,Palmview,TX,78572
1809 Audrey Dr,Mission,TX,78572
2811 Santa Ana,Mission,TX,78572
2802 Santa Lydia St,Mission,TX,78572
1503 Marla Dr,Palmview,TX,78572
1504 Sheri Lee Dr,Mission,TX,78572
3503 San Benito St,Mission,TX,78572
3302 Santa Erica St,Mission,TX,78572
4103 Santa Fe St,Mission,TX,78572
2008 Turtle Ln,Mission,TX,78572
2911 San Roman St,Mission,TX,78572
3102 Santa Lydia St,Mission,TX,78572
2420 E Sycamore Ave,Mission,TX,78572
4002 Santa Olivia St,Mission,TX,78572
7614 Wagon Trail Dr,Mission,TX,78572
3303 San Rafael St,Mission,TX,78572
1903 Selena St,Mission,TX,0
4101 Palmetto Drive,Mission,TX,78572
1101 Fincher St,Mission,TX,78572
3626 Beatty St,Mission,TX,78572
3008 Santa Lorena,Mission,TX,78572
1403 Barcelona St,Mission,TX,78572
2600 Solera,Mission,TX,78572
2702 San Diego,Mission,TX,78572
2800 Brock St,Mission,TX,78572
1808 Lauren Ln,Mission,TX,78572
3600 Florencia Ct,Mission,TX,78572
2509 Redstone Dr,Mission,TX,78572
1601 E Gastel Cir,Mission,TX,78572
3905 El Jardin,Mission,TX,78572
1308 San Felipe Dr,Mission,TX,78572
1008 Comanche St,Mission,TX,0
2316 Antigua Dr,Mission,TX,0
2509 Sequoia Dr,Mission,TX,78572
516 Virgo St,Mission,TX,78572
2705 Brock St,Mission,TX,78572
509 Venus St,Mission,TX,78572
611 S Mina De Oro St,Mission,TX,78572
2312 Red River Dr,Mission,TX,78572
2406 San Alejandro,Mission,TX,78572
413 Sagittarius St,Mission,TX,78572
603 S Rancho Del Rey St,Mission,TX,78572
1503 Viejo Ln,Mission,TX,78572
3505 Santa Sofia Ct,Mission,TX,78572
2806 Santa Susana St,Mission,TX,78572
2404 San Alejandro,Mission,TX,78572
1401 Viejo Ln,Mission,TX,78572
1104 Glenwood Ave,Mission,TX,78572
7730 Villa Rama South St,Mission,TX,78572
2808 Santa Susana St,Mission,TX,78572
1517 E 2nd St,Mission,TX,78572
1119 Ursula St,Mission,TX,78572
1103 Travis St,Mission,TX,78572
2809 Santa Monica,Mission,TX,78572
3607 Santa Maria St,Mission,TX,78572
1402 Betty Dr,Mission,TX,78572
3010 San Sebastian St,Mission,TX,78572
1400 Mockingbird Ave,Mission,TX,78572
3405 Santa Monica,Mission,TX,78572
1616 Palazzo,Mission,TX,78572
4100 San Clemente,Mission,TX,78572
4205 San Roman St,Mission,TX,78572
1803 River Bend Dr,Mission,TX,78572
3709 Santa Olivia St,Mission,TX,78572
2501 San Efrain,Mission,TX,78572
903 Colorado Ct,Mission,TX,78572
514 Aquarius St,Mission,TX,78572
1918 Sparrow Ln,Mission,TX,78572
2902 Santa Sofia Ct,Mission,TX,0
3611 Grand Canal Dr,Mission,TX,78572
1611 Sheri Lee Dr,Mission,TX,78572
3303 San Andres St,Mission,TX,78572
4005 Grand Canal Dr,Mission,TX,0
3421 W Expressway 83,Mission,TX,78572
2504 Starling Cir W,Palmview,TX,78572
2601 Grand Canal Dr,Mission,TX,78572
1414 N Mockingbird Ln,Palmview,TX,78572
125 S Holland Ave,Mission,TX,78572
1007 Burrus St,Mission,TX,78572
2807 Santa Laura,Mission,TX,78572
919 Rio Grande Dr,Mission,TX,78572
817 Cimarron Dr,Mission,TX,78572
3709 San Clemente,Mission,TX,78572
2608 Cassandra St,Mission,TX,78572
2222 Hackberry,Mission,TX,78572
2505 Sequoia Dr,Mission,TX,78572
2905 Grand Canal Dr,Mission,TX,78572
913 Lake View Dr,Mission,TX,78572
7810 Villa Rama North St,Mission,TX,78572
1501 S Stewart Rd,Mission,TX,78572
1401 Garden Dr,Mission,TX,78572
904 Rio Grande Dr,Mission,TX,78572
3001 Santa Fe St,Mission,TX,78572
107 Rio Grande Dr,Mission,TX,78572
2203 Truman St,Mission,TX,78572
2903 Capri Ct,Mission,TX,78572
1809 Sebastian St,Mission,TX,78572
2216 Torrie Ln,Mission,TX,78572
3901 San Efrain,Mission,TX,78572
907 E Veterans Blvd,Palmview,TX,78572
2211 Lilly Cove Dr,Mission,TX,78572
2503 San Esteban St,Mission,TX,0
1208 Cimarron Dr,Mission,TX,78572
2102 Colorado St,Mission,TX,78572
102 Saturn St,Mission,TX,78572
806 Carolina Ave,Mission,TX,78572
237 S Greene Rd,Palmview,TX,78572
2022 E 21st St,Mission,TX,78572
3100 San Sebastian St,Mission,TX,78572
2024 Lambeth Way,Mission,TX,78572
3606 Santa Erica St,Mission,TX,78572
3300 San Armando,Mission,TX,78572
2402 E 21st St,Mission,TX,78572
1010 Red River St,Mission,TX,78572
1810 Sabinal St,Mission,TX,78572
819 Rio Grande Dr,Mission,TX,78572
1801 Melissa Rae Dr,Mission,TX,78572
3008 San Sebastian St,Mission,TX,78572
400 Aquarius St,Mission,TX,78572
1718 Aries St,Mission,TX,78572
2420 Carianna Ave,Mission,TX,78572
1104 Rosa Ave,Mission,TX,78572
602 Rio Grande Dr,Mission,TX,78572
1806 Dolores Del Rio Ave,Mission,TX,78572
1104 Frio St,Mission,TX,78572
1811 Reagan St,Mission,TX,78572
3004 Santa Lorena,Mission,TX,78572
4104 San Rodrigo,Mission,TX,78572
2011 Nicklaus Dr,Mission,TX,78572
512 Rio Grande Dr,Mission,TX,78572
5405 San Diego,Mission,TX,78572
1605 Palazzo,Mission,TX,78572
7207 Bogey Dr,Mission,TX,78572
3102 Highland Ave,Mission,TX,78572
2405 W Interstate Highway 2,Mission,TX,78572
2209 Red River Dr,Mission,TX,78572
1911 Audrey Dr,Mission,TX,78572
2015 Sabinal St,Mission,TX,78572
1911 Adams St,Mission,TX,78572
211 S Mayberry St,Mission,TX,78572
2607 Redstone Dr,Mission,TX,78572
2011 Sabinal St,Mission,TX,78572
1404 Encantado Cir,Palmview,TX,78572
513 Castillos Y Diamantes St,Mission,TX,0
3500 San Andres Ct,Mission,TX,78572
3208 San Angelo St,Mission,TX,78572
1607 Jonathon Dr,Mission,TX,78572
3401 Plantation Grove Blvd,Mission,TX,78572
2701 San Lucas,Mission,TX,78572
1605 Crown Pointe Blvd,Mission,TX,78572
3005 Santa Rita,Mission,TX,78572
3911 Pelican Way,Mission,TX,78572
2014 Sabinal St # 5,Mission,TX,78572
221 W 14th St,Mission,TX,78572
1005 Dennise Ct,Mission,TX,78572
4004 San Clemente,Mission,TX,78572
902 Cimarron Dr,Mission,TX,78572
4103 Santa Marina St,Mission,TX,78572
1817 Dolores Del Rio Ave,Mission,TX,78572
1715 School Ln,Mission,TX,78572
2102 Green Gate Cir E,Palmview,TX,78572
2114 Hole In One Dr,Mission,TX,78572
1013 Frio St,Mission,TX,78572
2805 Santa Laura,Mission,TX,78572
2911 Silver Oak Dr,Mission,TX,78572
4007 Green Jay Dr,Mission,TX,78572
3301 Santa Olivia St,Mission,TX,78572
4102 Santa Veronica,Mission,TX,78572
2201 Washington Ave,Mission,TX,78572
1023 W Palma Vista Dr,Palmview,TX,78572
1015 Red River St,Mission,TX,78572
4005 Pelican Way,Mission,TX,78572
611 S Castillos Y Diamantes St,Mission,TX,0
3304 San Gabriel St,Mission,TX,78572
4106 Pelican Way,Mission,TX,78572
2301 Fairway Ct,Mission,TX,78572
2911 W Loop 374,Palmview,TX,78572
7476 Floyd Dr,Mission,TX,78572
3509 Oriole Dr,Mission,TX,0
4109 Wescan Ln,Mission,TX,78572
4402 Santa Inez St,Mission,TX,78572
00 W Business 83 Ave,Mission,TX,78572
1926 Lost Greens Dr,Mission,TX,78572
3710 Mallard Drive Mission Tx,Mission,TX,0
211 N Tecate Dr,Mission,TX,78572
2316 Fairway Ct,Mission,TX,78572
404 Scorpio St,Mission,TX,78572
705 S Bentsen Palm Dr,Mission,TX,78572
3406 San Angelo St,Mission,TX,78572
7729 Villa Rama South St,Mission,TX,78572
2407 E Bogey Dr,Mission,TX,78572
2308 Colorado St,Mission,TX,78572
2700 Santa Olivia St,Mission,TX,78572
1305 Marla Dr,Palmview,TX,78572
2511 Brentwood Dr,Mission,TX,78572
114 Rio Grande Dr,Mission,TX,78572
1008 Travis St,Mission,TX,78572
3601 Daniel Rd,Palmview,TX,78572
1010 Rio Grande Dr,Mission,TX,78572
3603 Denia Ct,Mission,TX,78572
3010 San Patricio St,Mission,TX,78572
1909 Jonathon Dr,Mission,TX,78572
416 Rio Grande Dr,Mission,TX,78572
1303 Sherwood Dr,Mission,TX,78572
1900 Alex Drive,Mission,TX,78572
1907 Polk St,Mission,TX,78572
510 Castillos Y Diamantes St,Mission,TX,0
29 Tulip St,Mission,TX,78572
3404 Santa Monica,Mission,TX,78572
3303 San Fabian St,Mission,TX,78572
2110 W Griffin Pkwy,Palmview,TX,78572
2224 Colorado St,Mission,TX,78572
66 Lampshire St # 66,Mission,TX,78572
6916 Pradera Ln,Palmview,TX,78572
3707 Oriole Drive,Mission,TX,78572
4008 Mallard Dr,Mission,TX,78572
2503 Fairway Ct,Mission,TX,78572
2703 San Carlos Ct,Mission,TX,78572
110 Mercury St,Mission,TX,78572
6905 Lucero Ct,Palmview,TX,78572
2113 Hole In One Dr,Mission,TX,78572
1814 Tyler St,Mission,TX,78572
3804 Pelican Way,Mission,TX,78572
7604 Bogey Dr,Mission,TX,78572
2400 Double Eagle Dr,Mission,TX,78572
4009 Lark Dr,Mission,TX,78572
2005 Kingfisher Ln,Mission,TX,78572
1813 Mike Barrera St,Mission,TX,78572
2007 Blue Jay St,Palmview,TX,78572
3801 Mallard Dr,Mission,TX,78572
3803 Mallard Dr,Mission,TX,78572
1905 E Bogey Dr,Mission,TX,78572
2221 Osprey Ln,Mission,TX,78572
500 S Paseo Del Rey St,Mission,TX,0
1809 Tyler St,Mission,TX,78572
3701 Pelican Way,Mission,TX,78572
1905 Selena St,Mission,TX,78572
2225 Osprey Ln,Mission,TX,78572
4017 Lark Dr,Mission,TX,78572
810 Hilda St,Mission,TX,78572
2821 Silver Oak Dr,Mission,TX,78572
2217 Bobolink Circle W Cir,Palmview,TX,78572
2010 Trevino Dr,Mission,TX,78572
2101 Green Gate Cir W,Palmview,TX,78572
3906 Lark Dr,Mission,TX,78572
607 Magnolia St,Palmview,TX,78572
3700 Pelican Way,Mission,TX,78572
2219 Osprey Ln,Mission,TX,78572
4006 Lark Dr,Mission,TX,78572
3505 Oriole Dr,Mission,TX,0
3908 Lark Dr,Mission,TX,78572
3904 Mallard Dr,Mission,TX,78572
600 S Castillos Y Diamantes Mission Tx,Mission,TX,0
2201 Kingfisher Ln,Mission,TX,78572
3507 Oriole Dr,Mission,TX,0
4110 Lark Dr,Mission,TX,78572
4201 Santa Lydia St,Mission,TX,78572
810 Bluebird,Pharr,TX,0
803 Delta Dr,Pharr,TX,78577
1017 E Alan St,Pharr,TX,78577
912 E Azucar Ave,Pharr,TX,78577
520 E Canela Ave,Pharr,TX,78577
2202 Radiant Ln,Edinburg,TX,78542
714 N Esperanza St,Pharr,TX,78577
2412 S Hibiscus St,Pharr,TX,78577
2304 Yellowfin Ave,Pharr,TX,78577
811 W Arapaho Dr,Pharr,TX,78577
910 W Arapaho Ave,Pharr,TX,78577
2605 N Poinsettia Ln,Pharr,TX,78577
2002 S Erica St,Pharr,TX,78577
303 Ohara Dr,Pharr,TX,78577
1204 E Nell Pool Dr,Pharr,TX,78577
900 E Scurlock,Pharr,TX,78577
1305 Rhett Dr # 31,Pharr,TX,78577
2409 S Dominique Dr,Pharr,TX,78577
2715 Melanie Dr,Pharr,TX,78577
608 W Falcon Ave,Pharr,TX,78577
807 S Juniper Cir,Pharr,TX,78577
8604 S Estrella St,Pharr,TX,0
1400 W Jeff Dr,Pharr,TX,78577
708 W Green Jay Ave,Pharr,TX,78577
3400 N Tequila Dr,Pharr,TX,78577
1807 W Ventura Dr,Pharr,TX,78577
327 Ashley Dr,Pharr,TX,78577
706 Goldfinch,Pharr,TX,78577
6900 S Naranja Ln,Pharr,TX,78577
409 W Kelly Ave,Pharr,TX,78577
1207 E Valle Vista Ave,Pharr,TX,78577
5902 La Ramada St,Pharr,TX,78577
4201 N Palm Dr,Pharr,TX,78577
5906 Ebony St,Pharr,TX,78577
7213 S San Marcos St,Pharr,TX,78577
2103 N Days Cir,Pharr,TX,78577
805 W Arapaho Ave,Pharr,TX,0
1110 W Green Jay Ave,Pharr,TX,78577
222 Javelina Dr,Pharr,TX,78577
806 W Iroquois Ave,Pharr,TX,78577
7400 S Dianne Dr,Pharr,TX,78577
2409 Rhett Dr,Pharr,TX,78577
1802 S Erica St,Pharr,TX,78577
503 Melanie Dr,Pharr,TX,78577
804 W Warren St,Pharr,TX,78577
1001 Regal Dr,Pharr,TX,78577
1409 Calle Espana,Pharr,TX,78577
2102 S Angelina Marie,Pharr,TX,78577
2000 S Villa Real Dr,Pharr,TX,78577
912 Regal Dr,Pharr,TX,78577
1307 E Maurer St,Pharr,TX,78577
1300 E Pine Ave,Pharr,TX,78577
1201 S Danner Rd,Pharr,TX,78577
1802 S Lili Dr,Pharr,TX,78577
710 W Starr Ave,Pharr,TX,78577
504 Pink Bugambilia,Pharr,TX,78577
1608 N Ebony St,Pharr,TX,78577
704 New Orleans Cir,Pharr,TX,78577
5103 N Mockingbird Ave,Pharr,TX,78577
907 Milano Ct,Pharr,TX,78577
8412 S Norma St,Pharr,TX,78577
900 W Moore Rd,Pharr,TX,78577
715 W Dipper Ave,Pharr,TX,78577
803 W Daffodil Ave,Pharr,TX,78577
504 W Jackson Ave,Pharr,TX,78577
409 Melanie Dr,Pharr,TX,78577
7421 S Morelos St,Pharr,TX,78577
2709 Rhett Dr,Pharr,TX,78577
801 E Azucar Ave,Pharr,TX,78577
2716 Charlotte Dr,Pharr,TX,78577
611 W La Quinta Dr,Pharr,TX,78577
401 Golden Dr,Pharr,TX,78577
3715 S Cage Blvd,Pharr,TX,78577
5913 N Sugar Rd,Pharr,TX,78577
512 Hunee Dr,San Juan,TX,0
309 E Saint Anne Dr,Pharr,TX,78577
2807 W Veterans Blvd,San Juan,TX,78589
140 W Handy Dr,Pharr,TX,78577
1305 W Park Dr,Pharr,TX,78577
1202 N Regal Dr,Pharr,TX,78577
335 Ashley Dr,Pharr,TX,78577
5107 N Mockingbird Ave,Pharr,TX,78577
322 W Sam Houston Blvd,Pharr,TX,78577
2312 S. Jackson  Road,Mcallen,TX,78577
504 W Jackson W Ave,Pharr,TX,78577
108 E Puebla Dr,Pharr,TX,78577
115 E Clark Ave,Pharr,TX,78577
100 W Moore Rd LOT 14,Pharr,TX,78577
1200 S Hibiscus St,Pharr,TX,78577
6407 Venus Ln,Pharr,TX,78577
2729 Palmer Dr,Pharr,TX,78577
501 N Palm Dr,Pharr,TX,78577
1333 Marble Rd,Pharr,TX,78577
321 Ashley Dr,Pharr,TX,78577
5607 N Sugar Rd,Pharr,TX,78577
326 Ashley Dr,Pharr,TX,78577
4301 S Cage Blvd,Pharr,TX,78577
2701 Charlotte Dr,Pharr,TX,78577
100 W Moore Rd LOT 44,Pharr,TX,78577
1607 Crown Pointe Blvd,Mission,TX,78572
1909 Robin Ave,Mcallen,TX,78504
2805 Francisca Ave,Mcallen,TX,78503
2600 York Ave,Mcallen,TX,78504
2604 Brazos Ave,Mcallen,TX,78504
2621 Mynah Ave,Mcallen,TX,78504
2323 N 35th Ln,Mcallen,TX,78501
4700 Zinnia Ave,Mcallen,TX,78504
2041 Lindberg Cir,Mcallen,TX,78501
2705 Northgate Ln,Mcallen,TX,78504
1012 N 45th St,Mcallen,TX,78501
4720 Toucan Ave,Mcallen,TX,78504
2208 Grayson Ave,Mcallen,TX,78504
3300 S Casa Linda St,Mcallen,TX,78503
2120 Jefferson Ave,Mcallen,TX,78504
4108 Country Meadows Dr,Edinburg,TX,78541
9509 N 22nd Ln,Mcallen,TX,78504
2213 Highland Ave,Mcallen,TX,78501
2317 Duke Ave,Mcallen,TX,78504
1516 Lark Ave,Mcallen,TX,78504
2500 Frontera Rd,Mcallen,TX,78504
401 W Hobbs Dr,Mcallen,TX,78504
125 W Daffodil Ave,Mcallen,TX,78501
7120 N 44th Ln,Mcallen,TX,78504
217 Baylor Ave,Mcallen,TX,78504
6908 N 34th St,Mcallen,TX,78504
5812 N Main St,Mcallen,TX,78504
7207 N 56th St,Mcallen,TX,78504
2712 W Fern Ave,Mcallen,TX,78501
5616 Pelican Ave,Mcallen,TX,78504
7416 N 31st St,Mcallen,TX,78504
13915 N 38th Ln,Edinburg,TX,78541
5905 Oriole Ave,Mcallen,TX,78504
2717 York Ave,Mcallen,TX,78504
10508 N 26th St,Mcallen,TX,78504
3108 N 34th St,Mcallen,TX,78501
2907 N 42nd Ln,Mcallen,TX,78501
3301 Southern Breeze Ave,Mcallen,TX,78541
1908 Whitewing Ave,Mcallen,TX,78501
1500 Hibiscus Ave,Mcallen,TX,78501
3705 N 42nd Ln,Mcallen,TX,78501
2008 N 47th St,Mcallen,TX,78501
2416 Baylor Ave,Mcallen,TX,0
3824 Xenops Ave,Mcallen,TX,78504
3801 Teal Ave,Mcallen,TX,78504
5253 Lost Creek Ln,Mcallen,TX,78504
5241 Lost Creek Ln,Mcallen,TX,78504
6507 N 26th Ln,Mcallen,TX,78504
1713 N 51st St,Mcallen,TX,78501
10209 N 26th St,Mcallen,TX,78504
4612 Sweetwater Ave,Mcallen,TX,78503
9115 N 28th Ln,Mcallen,TX,78504
2905 Swallow Ave,Mcallen,TX,78504
3605 Hawk Ct,Mcallen,TX,78504
821 Galveston Ave,Mcallen,TX,78501
1221 N 16th St,Mcallen,TX,78501
2701 Denton Creek Ave,Mcallen,TX,78504
4417 Wisteria Ave,Mcallen,TX,78504
4121 Ulex Ave,Mcallen,TX,78504
7816 N 4th St,Mcallen,TX,78504
2517 Vine Ave,Mcallen,TX,78501
636 E Thornhill Ave,Mcallen,TX,78503
7707 N 2nd Ln,Mcallen,TX,78504
2200 N 48th St,Mcallen,TX,78501
405 Canary Ave,Mcallen,TX,78504
7813 N Cynthia St,Mcallen,TX,78504
601 W Jackson Ave,Mcallen,TX,78501
6212 N Cynthia St,Mcallen,TX,78504
4601 Quince Ave,Mission,TX,78501
7500 N 22nd St,Mcallen,TX,78504
3420 Fern Ave,Mcallen,TX,78501
7300 N 4th St,Mcallen,TX,78504
3600 S M St,Mcallen,TX,78503
4900 Maple Ave,Mcallen,TX,78501
2625 Northgate Ln,Mcallen,TX,78504
2021 S 40th St,Mcallen,TX,78503
4413 Wisteria Ave,Mcallen,TX,78504
316 N 41st St,Mcallen,TX,78501
1920 Rice Ave,Mcallen,TX,78504
3809 Oriole Ave,Mcallen,TX,78504
510 Cardinal Ave,Mcallen,TX,78504
516 N 35th St,Mcallen,TX,78501
5024 Escondido Pass,Mcallen,TX,0
13517 N 34th St,Edinburg,TX,78541
300 Toucan Ave,Mcallen,TX,78504
1104 Wisteria Ave,Mcallen,TX,78504
4913 Kendlewood Ave,Mcallen,TX,78501
2513 S C St,Mcallen,TX,78503
3305 Cornell Ave,Mcallen,TX,78504
605 N 42nd St,Mcallen,TX,78501
3913 Water Lily,Mcallen,TX,78504
1125 Jay Ave,Mcallen,TX,78504
1201 E Yuma Ave,Mcallen,TX,78503
813 Jasmine Ave,Mcallen,TX,78501
4700 W Maple Ave,Mcallen,TX,78501
7513 N 33rd St,Mcallen,TX,78504
1701 Stanford,Mcallen,TX,78504
5100 N Cynthia St,Mcallen,TX,78504
1401 Kerria Ave,Mcallen,TX,78501
1224 E Yuma Ave,Mcallen,TX,78503
3005 Royal Palm Cir,Mcallen,TX,78501
2613 Denton Creek Ave,Mcallen,TX,78504
2209 N 25th St,Mcallen,TX,78501
1209 S Peking St,Mcallen,TX,78501
7914 N 28th Ln # 1,Mcallen,TX,78504
000 Tulip Ave,Mcallen,TX,78501
10001 N Ware Rd,Mcallen,TX,78504
5017 N 5th St,Mcallen,TX,78504
404 E Redbud Ave,Mcallen,TX,78504
6100 N 27th St,Mcallen,TX,78504
1512 Orchid Ave,Mcallen,TX,78504
5000 N Cynthia St,Mcallen,TX,78504
4113 Beaulieu Dr,Edinburg,TX,78541
4505 Quince Ave,Mcallen,TX,78501
8413 N Main St,Mcallen,TX,78504
3009 Daytona Ave,Mcallen,TX,78503
4512 Tyler Ave,Mcallen,TX,78503
3429 Melba Ave,Mcallen,TX,78503
205 S Cynthia St,Mcallen,TX,78501
101 Yellowhammer Ave,Mcallen,TX,78504
4120 Violet Ave,Mcallen,TX,78504
1412 Larkspur Ave,Mcallen,TX,78501
2600 Northgate Ln,Mcallen,TX,78504
300 Nyssa Ave,Mcallen,TX,78501
6109 N 3rd St,Mcallen,TX,78504
2504 Jay Ave,Mcallen,TX,78504
104 SE Greenbriar Sq,Mcallen,TX,78503
4401 Wisteria Ave,Mcallen,TX,78504
2617 N 7 1/2 St,Mcallen,TX,78501
10213 N 26th St,Mcallen,TX,78504
2917 N 51st St,Mcallen,TX,78501
308 Cardinal Ave # 1-2-3-4,Mcallen,TX,78504
1921 N 46th St,Mcallen,TX,78501
2120 S 32nd St,Mcallen,TX,78503
7916 N Cynthia St,Mcallen,TX,78504
332 Toucan Ave,Mcallen,TX,78504
1115 Harvey St,Mcallen,TX,78501
1713 Hibiscus Ave,Mcallen,TX,78501
421 Yucca Ave,Mcallen,TX,78504
2813 Hibiscus Ave,Mcallen,TX,78501
4300 S J St,Mcallen,TX,78503
3713 Sims Ln,Mcallen,TX,78504
3705 S H St,Mcallen,TX,78503
5400 N 3rd St,Mcallen,TX,78504
1206 N 47th Ln,Mcallen,TX,78501
5108 N 16th St,Mcallen,TX,78504
4809 S 30th St,Mcallen,TX,78503
3301 Cornell Ave,Mcallen,TX,78504
124 Wisteria Ave,Mcallen,TX,78504
1913 N 47th St,Mcallen,TX,78501
112 Wisteria Ave,Mcallen,TX,78504
5517 N 1st Ln,Mcallen,TX,78504
3932 Teal Ave,Mcallen,TX,78504
9212 N 27th St,Mcallen,TX,78504
1409 Yucca Ave,Mcallen,TX,78504
7010 N 44th Ln,Mcallen,TX,78504
1917 N 47th St,Mcallen,TX,78501
1018 N 40th Ln,Mcallen,TX,78501
520 Jasmine Ave,Mcallen,TX,78501
3821 Yellowhammer Ave,Mcallen,TX,78504
501 W Iris Ave,Mcallen,TX,78501
10700 N 26th St,Mcallen,TX,78504
2112 Queens Ave,Mcallen,TX,78504
6204 N 17th St,Mcallen,TX,78504
115 E Dallas Ave,Mcallen,TX,78501
808 N 35th St,Mcallen,TX,78501
3929 Swallow Ave,Mcallen,TX,78504
7516 N 3rd St,Mcallen,TX,78504
2012 N 47th St,Mcallen,TX,78501
301 Condor Ave,Mcallen,TX,78504
5715 N 3rd Ln,Mcallen,TX,78504
4604 Ensenada Ave,Mcallen,TX,0
3817 Whitewing Ave,Mcallen,TX,78501
2800 Shasta Ave,Mcallen,TX,78504
7201 N 4th St,Mcallen,TX,78504
4500 N 3rd St,Mcallen,TX,78504
4425 Quail Ave,Mcallen,TX,78504
315 N 3rd St,Mcallen,TX,78501
508 Baywood Ave,Mcallen,TX,78501
201 Ben Hogan Ave,Mcallen,TX,78503
504 Grambling Ave,Mcallen,TX,78504
1111 Vanessa Ave,Mcallen,TX,78503
3005 Hondo Ave,Mcallen,TX,78504
3601 Goldcrest Ave,Mcallen,TX,78504
2600 Xavier,Mcallen,TX,78504
221 Auburn Ave,Mcallen,TX,78504
921 N 35th St,Mcallen,TX,78501
6003 N 44th Ln,Mcallen,TX,78504
2201 S 45th St,Mcallen,TX,78503
2516 Fir Ave,Mcallen,TX,78501
606 S 1st Ln,Mcallen,TX,78501
2004 S 48th St,Mcallen,TX,78503
5125 Gumwood Ave,Mcallen,TX,78501
6909 N 39th St,Mcallen,TX,78504
4906 N 24th Ln,Mcallen,TX,78504
1107 Harvey St,Mcallen,TX,78501
3516 Kingsborough Ave,Mcallen,TX,78504
1108 Harvey St,Mcallen,TX,78501
708 Shasta Ave,Mcallen,TX,78504
711 Kendlewood Ave,Mcallen,TX,78501
304 Toucan Ave,Mcallen,TX,78504
2620 Swallow Ave,Mcallen,TX,78504
309 Cardinal Ave,Mcallen,TX,78504
3601 Daffodil Ave,Mcallen,TX,78501
10203 N 27th Ln,Mcallen,TX,78504
620 N 29th St,Mcallen,TX,78501
2821 Grayson Ave,Mcallen,TX,78504
701 S 27th St,Mcallen,TX,78501
3413 Palenque Dr,Mcallen,TX,78504
3616 Queta Ave,Mcallen,TX,78503
913 S 16th St,Mcallen,TX,78501
(undisclosed Address),Mcallen,TX,78504
126 W Whitewing Ave,Mcallen,TX,78501
2604 Denton Creek Ave,Mcallen,TX,78504
113 E Dallas Ave,Mcallen,TX,78501
5145 Lost Creek Lane,Mcallen,TX,78504
325 Heron Ave,Mcallen,TX,78504
401 S 21st St,Mcallen,TX,78501
501 S Rose Ellen Cir,Mcallen,TX,78501
4813 N 33rd St,Mcallen,TX,78504
1229 E Agusta Ave,Mcallen,TX,78503
2214 S 49th Ln,Mcallen,TX,78503
9512 N 17th St,Mcallen,TX,78504
1705 Tulip Ave,Mcallen,TX,78504
321 Lark Ave,Mcallen,TX,78504
6001 N Ware Rd,Mcallen,TX,78504
3109 Ursula Ave,Mcallen,TX,78503
1500 Wisteria Ave,Mcallen,TX,78504
10208 N Bentsen Rd,Mcallen,TX,78504
204 Water Lilly Ave,Mcallen,TX,78504
4902 N 47th Ln,Mcallen,TX,78504
4700 Quail Ave,Mcallen,TX,78504
9101 N 28th St,Mcallen,TX,78504
2900 Wanda Ave,Mcallen,TX,78503
7800 N 1st St,Mcallen,TX,78504
2701 Pelican Ave,Mcallen,TX,78504
400 E Bluebird Ave,Mcallen,TX,78504
7105 N 4th St,Mcallen,TX,78504
814 S 16th 1/2 St,Mcallen,TX,78501
6008 N 17th St,Mcallen,TX,78504
1824 Harvard Ave,Mcallen,TX,78504
6905 N 31st St,Mcallen,TX,78504
3620 La Vista Ave,Mcallen,TX,78501
100 Eagle Ave,Mcallen,TX,78504
2400 Denton Creek Ave,Mcallen,TX,78504
4904 La Vista St,Mcallen,TX,78501
5901 N 12th St,Mcallen,TX,78504
13201 N Depot Rd,Mcallen,TX,78504
5601 N 36th St,Mcallen,TX,78504
3009 Gull Ave,Mcallen,TX,78504
2421 Sandpiper Ave,Mcallen,TX,78504
1420 Northgate Ln,Mcallen,TX,78504
13407 N 37th Ln,Edinburg,TX,78541
113 E Warbler Ave,Mcallen,TX,78504
2200 N H St,Mcallen,TX,78501
216 Ben Hogan Ave,Mcallen,TX,78503
4616 Ben Hogan Ave,Mcallen,TX,78503
505 N 15th St,Mcallen,TX,78501
128 W Marigold Ave,Mcallen,TX,78501
2315 S 42nd Ln,Mcallen,TX,78503
7300 N 5th St,Mcallen,TX,78504
5813 N 3rd St,Mcallen,TX,78504
415 Victoria Ave,Mcallen,TX,78503
3624 S G St,Mcallen,TX,78503
1817 Jefferson Ave,Mcallen,TX,78504
400 E Dallas Ave,Mcallen,TX,78501
2613 Brazos Ave,Mcallen,TX,78504
4208 Whitewing Ave,Mcallen,TX,78501
3313 N 36th Ln,Mcallen,TX,78501
5817 Oriole Ave,Mcallen,TX,78504
1200 Hibiscus Ave,Mcallen,TX,78501
3700 Neuhaus Dr,Mcallen,TX,78503
1201 Hibiscus Ave,Mcallen,TX,78501
7324 N 4th St,Mcallen,TX,78504
6208 N Cynthia St,Mcallen,TX,78504
130 Ulex Ave,Mcallen,TX,78504
800 S Cynthia St,Mcallen,TX,78501
2209 Providence Ave,Mcallen,TX,78504
4421 Caddo Ln,Mcallen,TX,78504
4701 Thunderbird Ave,Mcallen,TX,78504
625 W Jackson Ave,Mcallen,TX,78501
8600 N Taylor Rd,Mcallen,TX,78504
4613 N 8th St,Mcallen,TX,78504
6108 N 32nd St,Mcallen,TX,78504
1916 N 46th St,Mcallen,TX,78501
3809 Mynah Ave,Mcallen,TX,78504
3704 S I St,Mcallen,TX,78503
3400 Water Lilly Ave,Mcallen,TX,78504
3004 Queens Ave,Mcallen,TX,78504
100 W Flamingo Ct,Mcallen,TX,78504
2016 S 48th St,Mcallen,TX,78503
103 E Augusta Sq S,Mcallen,TX,78503
3812 Ware Del Norte,Mcallen,TX,78504
4609 Savannah Ave,Mcallen,TX,78503
3308 Southern Breeze Ave,Mcallen,TX,78541
4401 S L St,Mcallen,TX,78503
2209 N H St,Mcallen,TX,78501
2236 S 26th St,Mcallen,TX,78503
1200 W Gardenia Ave,Mcallen,TX,78501
7009 N 4th St,Mcallen,TX,78504
6905 N Cynthia St,Mcallen,TX,78504
1334 Tulip Cir,Mcallen,TX,78504
3621 S H St,Mcallen,TX,78503
5208 Lost Creek Ln,Mcallen,TX,0
5112 W Tamarack Ave,Mcallen,TX,78501
1001 E Balboa Ave,Mcallen,TX,78503
3800 S L St,Mcallen,TX,78503
3841 S D St,Mcallen,TX,78503
10613 N 24th St,Mcallen,TX,78504
1305 Keeton Ave,Mcallen,TX,78503
615 S 1st Ln,Mcallen,TX,78501
2109 Providence Ave,Mcallen,TX,78504
400 E El Rancho Ave,Mcallen,TX,78503
2200 N 47th St,Mcallen,TX,78501
1909 S 46th St,Mcallen,TX,78503
601 Northgate Ln # 2,Mcallen,TX,78504
316 Kiwi St,Mcallen,TX,78504
7821 N 5th St,Mcallen,TX,78504
3501 S M St,Mcallen,TX,78503
1100 Harvey St,Mcallen,TX,78501
3600 N 42nd Ln,Mcallen,TX,78501
9207 N 28th Ln,Mcallen,TX,78504
5901 N Cynthia St,Mcallen,TX,78504
5708 Pelican Ave,Mcallen,TX,0
108 Xanthisma Ave,Mcallen,TX,78504
1217 S Peking St,Mcallen,TX,78501
4408 Jay Ave,Mcallen,TX,78504
301 Kiwi St,Mcallen,TX,78504
5216 Escondido Pass,Mcallen,TX,0
533 E Thornhill Ave,Mcallen,TX,78503
5125 Maple Ave,Mcallen,TX,0
113 Eagle Ave,Mcallen,TX,78504
3204 N Cynthia Ln,Mcallen,TX,78501
3848 S D St,Mcallen,TX,78503
1204 E Helena Ave,Mcallen,TX,78503
4001 Ware Del Norte,Mcallen,TX,78504
4316 Date Palm Ave,Mcallen,TX,78501
3500 N 33rd St,Mcallen,TX,78501
2500 N 1st St,Mcallen,TX,78501
1216 Wisteria Ave,Mcallen,TX,78504
5113 W Hackberry Ave,Mcallen,TX,78501
4404 N 7th St,Mcallen,TX,78504
4809 W Highland Ave,Mcallen,TX,78501
1020 E Upas Ave,Mcallen,TX,0
1211 Redwood Ave,Mcallen,TX,78501
2241 Gumwood Ave,Mcallen,TX,78501
1400 Fullerton Ave,Mcallen,TX,78504
412 E Dallas Ave,Mcallen,TX,78501
1504 Hawk Cir,Mcallen,TX,78504
4024 N Taylor Rd,Mcallen,TX,78504
5601 N 4th St,Mcallen,TX,78504
812 E Ithaca Ave,Mcallen,TX,78501
3404 Cornell Ave,Mcallen,TX,78504
3501 N 42nd Ln,Mcallen,TX,78501
529 E Sandyhills Ave,Mcallen,TX,78503
5009 Malaga Ln,Mcallen,TX,78504
4208 Tyler Ave,Mcallen,TX,78503
4908 N 3rd St,Mcallen,TX,78504
4525 Ben Hogan Ave,Mcallen,TX,78503
404 Larkspur Ave,Mcallen,TX,78501
4608 Vermont Ave,Mcallen,TX,78503
10611 N 25th Ln N 25th Ln,Mcallen,TX,78504
6501 N 33rd St,Mcallen,TX,78504
5009 W Highland Ave,Mcallen,TX,78501
5121 Gumwood Ave,Mcallen,TX,78501
5121 W Sycamore Ave,Mcallen,TX,78501
809 Grayson Ave,Mcallen,TX,78504
628 E Sandyhills Ave,Mcallen,TX,78503
604 E Thornhill Ave,Mcallen,TX,78503
7215 N 36th Ln,Mcallen,TX,78504
4517 Ben Hogan Ave,Mcallen,TX,78503
7701 N Bentsen Rd,Mcallen,TX,78504
5324 Escondido Pass,Mcallen,TX,0
3912 S M St,Mcallen,TX,78503
1704 N 49th St,Mcallen,TX,78501
2308 S 43rd St,Mcallen,TX,78503
1015 W Harvey Dr W,Mcallen,TX,78501
9901 N Ware Rd,Mcallen,TX,78504
101 E Harvey St,Mcallen,TX,78501
5305 River Rd,Mcallen,TX,0
7008 N Bentsen Rd,Mcallen,TX,78504
633 E Thornhill Ave,Mcallen,TX,78503
4120 N Taylor Rd,Mcallen,TX,78504
4501 N 5th St,Mcallen,TX,78504
2021 Oriole Ave,Mcallen,TX,78504
8700 N 29th St,Mcallen,TX,78504
3920 Auburn Ave,Mcallen,TX,78504
632 E Sandyhills Ave,Mcallen,TX,78503
2312 S 43rd St,Mcallen,TX,78503
801 E Sundown Dr,Mcallen,TX,78503
4313 Date Palm Ave,Mcallen,TX,78501
4200 Mile 7 Rd,Mcallen,TX,78504
13813 N 40th St,Edinburg,TX,78541
4509 Quince Ave,Mcallen,TX,78501
3525 S M St,Mcallen,TX,78503
2012 Jefferson Ave,Mcallen,TX,78504
620 N 49th St,Mcallen,TX,78501
4904 Vermont Ave,Mcallen,TX,78503
3429 S 3rd St,Mcallen,TX,78503
4908 Jasmine Ave,Mcallen,TX,78501
600 S 28th St,Mcallen,TX,78501
2801 Quail Ave,Mcallen,TX,78504
801 S 5th St,Mcallen,TX,78501
6208 N 16th St,Mcallen,TX,78504
1777 Northgate Ln,Mcallen,TX,78504
3512 Cornell Ave,Mcallen,TX,78504
3808 S K Center St,Mcallen,TX,78503
405 Larkspur Ave,Mcallen,TX,78501
2517 Cornell Ave,Mcallen,TX,78504
517 E Thornhill Ave,Mcallen,TX,78503
2033 Martin Ave,Mcallen,TX,78504
4712 W Maple Ave,Mcallen,TX,78501
3804 Violet Ave,Mcallen,TX,78504
3401 S M St,Mcallen,TX,78503
613 E Thornhill Ave,Mcallen,TX,78503
3700 Sonora Ave,Mcallen,TX,78503
4201 Buddy Owens Ave,Mcallen,TX,78504
5904 Pelican Ave,Mcallen,TX,0
6904 N 30th St,Mcallen,TX,78504
5349 Escondido Pass,Mcallen,TX,0
5908 Pelican Ave,Mcallen,TX,0
2045 Balboa Ave,Mcallen,TX,78503
3601 W State Highway 107,Mcallen,TX,78504
3013 Daytona Ave,Mcallen,TX,78503
4313 S # K,Mcallen,TX,78503
4401 S M St,Mcallen,TX,78503
513 N 4th St,Mcallen,TX,78501
3400 Robin Ave,Mcallen,TX,78504
11504 N Taylor Rd,Mcallen,TX,78504
2801 N 42nd St,Mcallen,TX,78501
301 Bales Rd APT 6,Mcallen,TX,78503
10308 N 24th St,Mcallen,TX,78504
8900 N Taylor Rd,Mcallen,TX,78504
9700 N 23rd St,Mcallen,TX,78504
2045 S Balboa S Ave,Mcallen,TX,78503
3208 Wisteria Ave,Mcallen,TX,78504
11300 N Taylor Rd,Mcallen,TX,78504
300 Zinnia Ave,Mcallen,TX,78504
700 Redbud Ave,Mcallen,TX,78504
525 S Bentsen Rd,Mcallen,TX,78501
1228 E Agusta Ave,Mcallen,TX,78503
301 Byron Nelson St UNIT 30,Mcallen,TX,78503
4902 Pecan Blvd,Mcallen,TX,78501
5009 Malaga Ln # 1,Mcallen,TX,78504
1309 E Agusta Ave,Mcallen,TX,78503
901 E Redbud Ave,Mcallen,TX,78504
709 N 49th St,Mcallen,TX,78501
621 Avocet Ave,Mcallen,TX,78504
3509 Bluebird Ave,Mcallen,TX,78504
10200 N Bentsen Rd,Mcallen,TX,78504
2513 Denton Creek Ave,Mcallen,TX,78504
313 N 48th St,Mcallen,TX,78501
1412 Hibiscus Ave,Mcallen,TX,78501
1613 Sycamore Ave,Mcallen,TX,78501
1908 Emory Ave,Mcallen,TX,78504
2105 Ebony Ave,Mcallen,TX,78501
601 Northgate Ln # 1,Mcallen,TX,78504
2725 Zurich Ave,Mcallen,TX,78504
309 Quail Ave,Mcallen,TX,78504
1215 N 22 1/2 St E,Mcallen,TX,78501
8010 N 23rd Ln,Mcallen,TX,0
1328 Myrtle Beach Ave,Mcallen,TX,78503
3007 S Casa Linda St,Mcallen,TX,78503
13924 N 40th St,Edinburg,TX,78541
408 E Redbud Ave,Mcallen,TX,78504
9009 N Ware Rd,Mcallen,TX,78504
107 W Ulex Ave,Mcallen,TX,78504
1515 Violet Ave,Mcallen,TX,78504
3016 S Mockingbird St,Mcallen,TX,78503
3012 N 6th St,Mcallen,TX,78501
1212 La Vista Ave,Mcallen,TX,78501
1208 W Iris Ave,Mcallen,TX,78501
2700 N 45th St,Mcallen,TX,78501
1103 W Fig Ave,Pharr,TX,78577
800 W Hall Acres Rd APT 2,Pharr,TX,78577
3900 Park Place Ave,Pharr,TX,78577
4600 N Ebony St APT 4,Pharr,TX,78577
4716 N Dogwood St APT 1,Pharr,TX,78577
1500 Hummingbird Ct,Pharr,TX,78577
708 W Bronze Dr,Pharr,TX,78577
3705 S Radisson Ave APT 2,Pharr,TX,78577
1703 W Bronze St,Pharr,TX,78577
813 W Cheyenne Ave,Pharr,TX,0
244 E Greg Dr,Pharr,TX,78577
5105 N Mockingbird Ave,Pharr,TX,78577
55 Glenway Blvd,Pharr,TX,78577
2605 S Fir St,Pharr,TX,78577
709 Hummingbird Ave,Pharr,TX,78577
2003 S Erica St,Pharr,TX,78577
5504 Robin Ave,Pharr,TX,78577
2616 Ashley Dr,Pharr,TX,78577
2304 S Dominique Dr,Pharr,TX,0
6503 S Azul Ln,Pharr,TX,78577
902 Tara Dr,Pharr,TX,78577
3405 Butler Ave,Pharr,TX,78577
7104 E Comet Dr,Pharr,TX,78577
336 Navarro St,Pharr,TX,78577
2308 S Dominique Dr,Pharr,TX,78577
2312 S Dominique Dr,Pharr,TX,78577
907 W Cheyenne Ave,Pharr,TX,0
1012 W Lee St,Pharr,TX,78577
1661 W Canal Ln,Pharr,TX,0
305 Ashley Dr,Pharr,TX,78577
100 W Moore Rd LOT 46,Pharr,TX,78577
303 Ashley Dr,Pharr,TX,78577
5310 San Diego Dr,Edinburg,TX,78542
1608 W Portales Dr,Edinburg,TX,78541
1006 W Champion St,Edinburg,TX,78539
1614 W Portales Dr,Edinburg,TX,78541
410 Pirul St,Edinburg,TX,78541
3706 W Zelma St,Edinburg,TX,78541
704 S Dfw Dr,Edinburg,TX,78539
3306 Audrey Ln,Edinburg,TX,78541
1410 Ruidoso,Edinburg,TX,78541
414 S Raul Longoria Rd,Edinburg,TX,78542
510 Frio Dr,Edinburg,TX,78539
8627 Quietud St,Edinburg,TX,0
1804 Faccio St,Edinburg,TX,78542
3308 Gabbie Ln,Edinburg,TX,78542
2823 Vera Ave,Edinburg,TX,78539
3004 Cuarzo St,Edinburg,TX,78539
12900 Los Terrazos Blvd,Edinburg,TX,78541
2704 Yosemite St,Edinburg,TX,78542
3530 Aquamarine Ln,Edinburg,TX,78541
1902 Swallow Ct,Edinburg,TX,78541
2702 Sequoia St,Edinburg,TX,78542
5502 Alquds Ave,Edinburg,TX,78539
2402 Penrose Ave,Edinburg,TX,0
3824 Lula St,Edinburg,TX,78539
703 E Lovett St,Edinburg,TX,78541
3012 Laurie Ln,Edinburg,TX,78539
805 Palacios Dr,Edinburg,TX,78539
12733 Westside Ln,Mission,TX,78574
3409 Lancelot Ln,Edinburg,TX,78539
1932 Katherine Ave,Edinburg,TX,78539
4904 Fawn Cir,Edinburg,TX,78539
4907 E State Highway 107,Edinburg,TX,78542
23725 N Val Verde Rd,Edinburg,TX,78542
3525 Rancho Del Rey,Edinburg,TX,0
16348 E Mile 19 Rd,Edinburg,TX,78542
5505 San Diego,Edinburg,TX,78542
5007 Robin Ln,Edinburg,TX,78542
3216 Salvador Ave,Edinburg,TX,78539
815 Pacific Ave,Edinburg,TX,78539
15813 Las Canas Rd,Edinburg,TX,78541
2509 Vancouver Ave,Edinburg,TX,78539
2411 Biltmore Ave,Edinburg,TX,78539
104 N 28th Ave,Edinburg,TX,78542
1811 Nora Dr,Edinburg,TX,78539
213 Glasscock,Edinburg,TX,78541
2531 Leslie St,Edinburg,TX,78539
3812 Monette St,Edinburg,TX,78539
2724 Gregg Dr,Edinburg,TX,78542
3103 Brightwood Ave,Edinburg,TX,78539
2313 Vancouver Ave,Edinburg,TX,0
3401 Monserat Dr,Edinburg,TX,78539
1306 S 13th Ave,Edinburg,TX,78539
4501 N Kenyon Rd,Edinburg,TX,78542
1308 Hickory St,Edinburg,TX,78541
1407 Strawberry Hill St,Edinburg,TX,0
3002 Brenda,Edinburg,TX,78541
2304 Vancouver Ave,Edinburg,TX,78539
6615 Haddonfield St,Edinburg,TX,78542
506 Ric Mar St,Edinburg,TX,78541
21003 Monte Cristo Rd,Edinburg,TX,78542
2508 Vancouver Ave,Edinburg,TX,78539
1914 Majella St,Edinburg,TX,78542
2922 Maria Luiza Dr,Edinburg,TX,78539
3314 Monroe Ave,Edinburg,TX,78539
2224 Llano Grande Ln,Edinburg,TX,78542
4102 Pedernal St,Edinburg,TX,78542
1301 S 16th Ave,Edinburg,TX,78539
3318 Granada St,Edinburg,TX,78542
1015 E Peter St,Edinburg,TX,78541
2308 Colvin Ave,Edinburg,TX,78539
2201 Alloy Drive,Edinburg,TX,78542
1907 Woods Dr W,Edinburg,TX,78542
1813 Black Stone St,Edinburg,TX,78542
1902 Anacua Cir,Edinburg,TX,78539
3303 Ginger Ave,Edinburg,TX,78539
Lot 26,Edinburg,TX,0
2608 Wolverine St,Edinburg,TX,0
709 S 23rd Ave,Edinburg,TX,78539
3226 W Roadrunner Dr,Edinburg,TX,78541
21025 Buck Fawn Dr,Edinburg,TX,78542
905 W Smith St,Edinburg,TX,78541
1426 Bianca,Edinburg,TX,78539
920 Imelda,Edinburg,TX,78541
5707 Premiere Ln,Edinburg,TX,78542
1712 Faccio St,Edinburg,TX,78542
3517 Featherie St,Edinburg,TX,78542
707 Drennan St,Edinburg,TX,78541
3201 La Puerta Ave,Edinburg,TX,78541
5005 Juno Ct,Edinburg,TX,78539
4305 Calma St,Edinburg,TX,78541
4908 Nevis Dr,Edinburg,TX,78539
1109 July Dr,Edinburg,TX,78539
1815 Ector Dr,Edinburg,TX,78542
24206 Jackpot Blvd,Edinburg,TX,78542
2920 Brenda,Edinburg,TX,78541
2410 Colvin Ave,Edinburg,TX,78539
5509 San Roman Dr,Edinburg,TX,78542
221 E Baker Dr,Edinburg,TX,78539
3523 Prestwick St,Edinburg,TX,78542
1804 Wilcox Dr,Edinburg,TX,78542
Lot 20,Edinburg,TX,0
6503 N Doolittle Rd,Edinburg,TX,78542
15403 N Depot Rd,Edinburg,TX,78541
1014 Hill Country Rd,Edinburg,TX,78539
415 E Mcintyre St,Edinburg,TX,78541
38263 Mile 16 Rd,Edinburg,TX,78541
314 Santa Fe St,Edinburg,TX,78541
1624 Saint Claire Ave,Edinburg,TX,0
910 N Columbia Dr,Edinburg,TX,78541
1305 July Dr,Edinburg,TX,78539
3520 Horizon Trl,Edinburg,TX,78541
2511 Churchill Ave,Edinburg,TX,78539
907 S Veterans Blvd,Edinburg,TX,78539
3107 Manchester Dr,Edinburg,TX,78539
17108 Wagon Trl,Edinburg,TX,78541
1431 W Rogers Rd,Edinburg,TX,78541
24950 Laguna Seca Rd N,Edinburg,TX,78541
1715 Chandler Cir,Edinburg,TX,78542
3302 Los Lagos Dr,Edinburg,TX,78542
1124 W Cooper St,Edinburg,TX,78541
1012 Bunker Ave,Edinburg,TX,78542
2308 Liverpool Dr,Edinburg,TX,78539
5014 Hudson St,Edinburg,TX,78542
2601 Lake Shore Dr,Edinburg,TX,78539
9110 Galactic Dr,Edinburg,TX,78541
517 E Lovett St,Edinburg,TX,78541
5137 E State Highway 107,Edinburg,TX,78542
2429 E Tin Ave,Edinburg,TX,78542
17012 N Hoehn Rd,Edinburg,TX,78541
2402 Flipper Dr,Edinburg,TX,78541
4300 Country St,Edinburg,TX,78541
4520 N Jackson Rd,Edinburg,TX,78541
1105 July Dr,Edinburg,TX,78539
5633 Nardo St,Edinburg,TX,78541
3436 Los Lagos Dr,Edinburg,TX,78542
315 S 84th St,Edinburg,TX,78542
1613 Red River Ave,Edinburg,TX,78542
3912 Revilla St,Edinburg,TX,78542
2912 Bobcat Ave,Edinburg,TX,0
1002 S 17th Ave,Edinburg,TX,78539
2420 Moreno Dr,Edinburg,TX,78541
1234 Chris Cir,Edinburg,TX,78539
3211 Neptune St,Edinburg,TX,78542
1620 Saint Claire Ave,Edinburg,TX,78539
1809 Lago Huron,Edinburg,TX,78542
12705 E Monte Cristo Rd,Edinburg,TX,78542
1909 Teal Ln,Edinburg,TX,78541
3623 Ebro Dr,Edinburg,TX,0
3406 Knight Ave,Edinburg,TX,78539
612 Oregano St,Edinburg,TX,78541
1216 S 15th Ave,Edinburg,TX,78539
5614 Eleanor St,Edinburg,TX,78542
1720 Harvest St,Edinburg,TX,78539
2235 N Ruby St,Edinburg,TX,78541
501 Eastwood Ln,Edinburg,TX,78542
25344 N Fm 681,Edinburg,TX,78541
405 Northern Dancer Ave,Edinburg,TX,78539
1706 Saint Claire Ave,Edinburg,TX,0
1609 Lago Huron,Edinburg,TX,78542
1325 S 15th Ave,Edinburg,TX,78539
1719 Red River Ave,Edinburg,TX,78542
4816 Oxford St,Edinburg,TX,78539
18180 Fm # 493,Edinburg,TX,78542
3221 Salvador Ave,Edinburg,TX,78539
1801 Woods Dr W,Edinburg,TX,78542
2115 Joy St,Edinburg,TX,78539
5409 San Diego St,Edinburg,TX,78542
3211 Lago Superior,Edinburg,TX,78542
4113 Stillwater Cv,Edinburg,TX,78542
4217 Marc Ave,Edinburg,TX,78539
3027 London Dr,Edinburg,TX,78539
3009 Hawthorne Ave,Edinburg,TX,78539
2410 E De La Rosa St,Edinburg,TX,78542
3106 London Dr,Edinburg,TX,78539
5014 Galilea,Edinburg,TX,78542
3410 Knight Ave,Edinburg,TX,78539
13316 Borolo Dr,Edinburg,TX,78541
21211 W Gaston Cir,Edinburg,TX,78542
24002 Jackpot Blvd,Edinburg,TX,78542
2702 Chateau St,Edinburg,TX,78539
4004 Santa Fe St,Edinburg,TX,78542
2721 Seton St,Edinburg,TX,78542
3106 N Roegiers Rd,Edinburg,TX,78541
7608 N Tower Rd,Edinburg,TX,78542
1411 July Dr,Edinburg,TX,78539
2402 Cuesta Del Sol St,Edinburg,TX,78542
17021 Wallace Rd,Edinburg,TX,78541
1808 Majella St,Edinburg,TX,78542
2711 E Ramseyer Rd,Edinburg,TX,78542
3514 Plazas Del Lago Dr,Edinburg,TX,78539
2405 W Hampton,Edinburg,TX,78539
22111 N Val Verde Rd,Edinburg,TX,78542
5220 E State Highway 107,Edinburg,TX,78542
717 Eastwood Ln,Edinburg,TX,78542
602 Eastwood Ln,Edinburg,TX,78542
625 Eastwood Ln,Edinburg,TX,78542
3 Mile S Fm 2058 Rd,Edinburg,TX,78540
3627 Featherie St,Edinburg,TX,78542
701 Eastwood Ln,Edinburg,TX,78542
618 Eastwood Ln,Edinburg,TX,78542
5220 E State Highway 107 E Hwy,Edinburg,TX,78542
9001 N Us Highway Business 281 Hwy,Edinburg,TX,78540
3 Mile S Fm 2058 Rd S,Edinburg,TX,78540
2215 Links Dr,Edinburg,TX,78542
605 Eastwood Ln,Edcouch,TX,78542
3002 Lago Tahoe,Edinburg,TX,78542
1711 Lago Huron,Edinburg,TX,78542
3006 Lago Tahoe,Edinburg,TX,78542
3010 Lago Tahoe,Edinburg,TX,78542
1801 Lago Huron,Edinburg,TX,78542
517 Eastwood Ln,Edinburg,TX,78542
2524 Rocky Mountain Ave,Edinburg,TX,78541
601 Eastwood Ln,Edinburg,TX,78542
3631 Tecate St,Edinburg,TX,78542
1406 Chapel Hill Dr,Edinburg,TX,0
617 Gastel Cir,Edinburg,TX,78539
00 Us Highway 281,Edinburg,TX,78542
525 Frio Dr,Edinburg,TX,78539
5611 E Ramseyer Rd,Edinburg,TX,78542
710 Eastwood Ln,Edinburg,TX,78542
1802 Leann Rimes Rd,Edinburg,TX,78542
1506 Finch Ln,Edinburg,TX,78541
3114 London Dr,Edinburg,TX,78539
7720 N Doolittle Rd,Edinburg,TX,78542
1810 Alazan St,Edinburg,TX,78542
3314 Lancelot Ln,Edinburg,TX,78539
10 N Iowa Rd,Mission,TX,78541
3326 Vista Bonita Dr,Edinburg,TX,78542
3109 Valcosta Sr,Mcallen,TX,78504
1104 N Boston College Dr,Edinburg,TX,78541
2906 Manchester Dr,Edinburg,TX,78539
9413 Rockwood Dr,Edinburg,TX,78541
3011 Ginger Ave,Edinburg,TX,78539
5532 S Jackson Rd,Edinburg,TX,78539
5103 E Mile 17 Rd,Edinburg,TX,78542
1371 Shania Twain Dr,Edinburg,TX,0
2227 Links Dr,Edinburg,TX,78542
2710 Windsor St,Edinburg,TX,78541
3028 Manchester Dr,Edinburg,TX,78539
0 N Tower Rd,Edinburg,TX,78542
5625 Nardo St,Edinburg,TX,78541
11016 W Mile 9 1/2 Rd,Mission,TX,78573
1212 S Mon Mack Rd,Edinburg,TX,78539
2729 N Jackson Rd,Edinburg,TX,78541
Tbd Depot Rd,Edinburg,TX,78541
4113 Ora St,Edinburg,TX,78539
2906 E University Dr,Edinburg,TX,78542
3512 Macquarie Dr,Edinburg,TX,78542
1601 Lago Huron,Edinburg,TX,78542
13500 Stags Leap,Edinburg,TX,78541
18350 Citrus Dr,Edinburg,TX,78541
1620 Oaks Rd,Edinburg,TX,78539
14554 Fm 2812,Edcouch,TX,78538
2116 Tourist Dr,Edinburg,TX,78539
714 N Mccoll Rd,Edinburg,TX,78541
1703 Lago Huron,Edinburg,TX,78542
32910 W Fm 681,Edinburg,TX,78541
613 Eastwood Ln,Edinburg,TX,78542
1505 N Sugar Rd,Edinburg,TX,78541
8809 E Monte Cristo Rd,Edinburg,TX,78542
2706 Nessuh Ave,Edinburg,TX,0
610 Eastwood Ln,Edinburg,TX,78542
721 Eastwood Ln,Edinburg,TX,78542
1404 Leann Rimes,Edinburg,TX,78542
3324 N Terry Rd,Edinburg,TX,78542
709 Eastwood Ln,Edinburg,TX,78542
23240 Uresti St,Edinburg,TX,78542
7212 E Iowa Rd,Edinburg,TX,78542
21982 N Sunflower Rd,Edinburg,TX,78542
617 Eastwood Ln,Edinburg,TX,78542
3712 S Sugar Rd,Edinburg,TX,78539
2814 E University Dr,Edinburg,TX,78542
3417 W Sprague St,Edinburg,TX,78539
626 Eastwood Ln,Edinburg,TX,78542
412 Eastwood Ln,Edinburg,TX,78542
514 Eastwood Ln,Edinburg,TX,78542
2229 N 83rd St,Edinburg,TX,78542
1805 Lago Huron,Edinburg,TX,78542
613 N Jackson Rd,Edinburg,TX,78541
206 Beverly Hills Ln,Edinburg,TX,78542
713 Eastwood Ln,Edinburg,TX,78542
404 Eastwood Ln,Edinburg,TX,78542
21219 N Skinner Rd,Edinburg,TX,78542
621 Eastwood Ln,Edinburg,TX,78542
1705 N Alamo Rd,Edinburg,TX,78542
2809 Jessica,Edinburg,TX,78541
606 Eastwood Ln,Edinburg,TX,78542
401 Eastwood Ln,Edinburg,TX,78542
718 Eastwood Ln,Edinburg,TX,78542
509 Eastwood Ln,Edinburg,TX,78542
409 Eastwood Ln,Edinburg,TX,78542
